IRIDIUM 166             
1 43570U 18061B   24126.67845603  .00000408  00000+0  13871-3 0  9993
2 43570  86.4014  19.5751 0002058  78.5242 281.6184 14.34219762302672
IRIDIUM 158             
1 43571U 18061C   24126.78627799  .00000369  00000+0  12486-3 0  9997
2 43571  86.4013  19.5392 0002043  88.3080 271.8349 14.34216936302658
IRIDIUM 165             
1 43572U 18061D   24126.74187985  .00000334  00000+0  11234-3 0  9994
2 43572  86.4015  19.5893 0001959  82.9166 277.2252 14.34218640302676
IRIDIUM 155             
1 43573U 18061E   24126.77359299  .00000413  00000+0  14044-3 0  9997
2 43573  86.4011  19.4835 0002166  80.3778 279.7662 14.34218374302643
IRIDIUM 163             
1 43575U 18061G   24126.94484414  .00000403  00000+0  13699-3 0  9990
2 43575  86.4011  19.4471 0002240  83.9287 276.2164 14.34219107302697
